[{"OBJECT_NAME":"STARLINK-4190","OBJECT_ID":"2022-076R","EPOCH":"2026-03-09T08:09:17.691840","MEAN_MOTION":15.08837005,"ECCENTRICITY":0.00010666,"INCLINATION":53.216,"RA_OF_ASC_NODE":95.6918,"ARG_OF_PERICENTER":72.4522,"MEAN_ANOMALY":287.6587,"EPHEMERIS_TYPE":0,"CLASSIFICATION_TYPE":"U","NORAD_CAT_ID":53001,"ELEMENT_SET_NO":999,"REV_AT_EPOCH":20279,"BSTAR":2.3947554e-5,"MEAN_MOTION_DOT":9.3e-7,"MEAN_MOTION_DDOT":0},{"OBJECT_NAME":"CZ-6A DEB","OBJECT_ID":"2024-140RH","EPOCH":"2026-03-09T12:32:13.567200","MEAN_MOTION":15.23024459,"ECCENTRICITY":0.01073082,"INCLINATION":88.6757,"RA_OF_ASC_NODE":253.1302,"ARG_OF_PERICENTER":74.0491,"MEAN_ANOMALY":287.2547,"EPHEMERIS_TYPE":0,"CLASSIFICATION_TYPE":"U","NORAD_CAT_ID":61163,"ELEMENT_SET_NO":999,"REV_AT_EPOCH":8457,"BSTAR":0.0019108924,"MEAN_MOTION_DOT":0.00053105,"MEAN_MOTION_DDOT":0}]
